// 실제 우주 물체 TLE 스냅샷 (CelesTrak, 2026 epoch ~day186). SGP4로 propagate.
// station=우주정거장/위성, debris=충돌 잔해(Fengyun-1C·Cosmos-2251·Iridium-33), sat=Starlink 등 활성위성
window.SPACE_OBJECTS=[ {"n": "STARLINK-31338", "t": "sat", "l1": "1 59156U 24044E   26185.99649183  .00002308  00000+0  93353-4 0  9990", "l2": "2 59156  43.0025 168.2035 0000980 253.8135 106.2609 15.27579823131469"}, {"n": "FENGYUN 1C DEB", "t": "debris", "l1": "1 29869U 99025FP  26185.85265646  .00000976  00000+0  32850-3 0  9995", "l2": "2 29869  98.8875 127.7020 0087424 128.1015 301.8550 14.37309239 17475"}, {"n": "COSMOS 2251 DEB", "t": "debris", "l1": "1 37535U 93036BNQ 26186.29869302  .00003911  00000+0  82185-3 0  9996", "l2": "2 37535  74.0223  43.3732 0027793 128.5124 353.2935 14.59694869883084"}, {"n": "UITMSAT-2", "t": "station", "l1": "1 67686U 98067YC  26186.29368582  .00117177  00000+0  10384-2 0  9990", "l2": "2 67686  51.6234 200.4569 0004460 298.4017  61.6529 15.67708602 23148"}, {"n": "STARLINK-1199", "t": "sat", "l1": "1 45201U 20012Z   26186.28214683  .00039132  00000+0  10597-2 0  9995", "l2": "2 45201  53.1535 195.4690 0005949  15.0391 345.0789 15.37303255353197"}, {"n": "STARLINK-31620", "t": "sat", "l1": "1 59460U 24068F   26185.73728591  .00003712  00000+0  14431-3 0  9996", "l2": "2 59460  43.0038  90.0361 0001406 253.1944 106.8754 15.27586294126461"}, {"n": "STARLINK-31176", "t": "sat", "l1": "1 58745U 24005T   26186.32525373 -.00005477  00000+0 -18983-3 0  9999", "l2": "2 58745  42.9992 275.4926 0002046 282.6592  77.4031 15.27548573138479"}, {"n": "STARLINK-32483", "t": "sat", "l1": "1 61856U 24202M   26186.34985027  .00000386  00000+0  23549-4 0  9990", "l2": "2 61856  43.0043 293.3872 0001514 272.2822  87.7856 15.27588211 93331"}, {"n": "IRIDIUM 33 DEB", "t": "debris", "l1": "1 36012U 97051UT  26186.06947868  .00005645  00000+0  20289-2 0  9997", "l2": "2 36012  86.4402 224.9302 0216675 330.8036  28.1177 14.21430079683857"}, {"n": "COSMOS 2251 DEB", "t": "debris", "l1": "1 37993U 93036BQU 26185.14464978  .00006099  00000+0  12126-2 0  9994", "l2": "2 37993  74.0225 137.6839 0021513 181.4261 178.6849 14.62178177682884"}, {"n": "IRIDIUM 33 DEB", "t": "debris", "l1": "1 35297U 97051PM  26183.71594271  .00002233  00000+0  62056-3 0  9995", "l2": "2 35297  86.3891 336.5138 0015676 187.0831 173.0152 14.46018407733440"}, {"n": "FENGYUN 1C DEB", "t": "debris", "l1": "1 29737U 99025AB  26185.73658956  .00002129  00000+0  42792-2 0  9993", "l2": "2 29737  99.5792 112.3328 0704132  56.6683 336.9952 12.66275252894503"}, {"n": "FENGYUN 1C DEB", "t": "debris", "l1": "1 32161U 99025CTF 26178.55449380  .00000146  00000+0  11281-3 0  9996", "l2": "2 32161  98.8392 282.0819 0136997  92.2041 269.4819 14.02068665661872"}, {"n": "COSMOS 2251 DEB", "t": "debris", "l1": "1 34058U 93036JV  26186.49250678  .00000432  00000+0  40735-3 0  9995", "l2": "2 34058  73.9309 206.1493 0376871 162.7443 359.0375 13.56308100859187"}, {"n": "COSMOS 2251 DEB", "t": "debris", "l1": "1 37118U 93036BGQ 26182.30721243  .00017196  00000+0  20745-2 0  9995", "l2": "2 37118  74.0135  47.0212 0005864 102.0338 258.1498 14.83778687685216"}, {"n": "FENGYUN 1C DEB", "t": "debris", "l1": "1 38717U 99025ETJ 26186.32148233  .00003626  00000+0  16600-2 0  9991", "l2": "2 38717  99.1447 213.7105 0057303 130.9090 294.7046 14.21183958613319"}, {"n": "FENGYUN 1C DEB", "t": "debris", "l1": "1 30301U 99025ZN  26186.41513932  .00022284  00000+0  44463-2 0  9993", "l2": "2 30301  98.6393 350.0974 0058683  23.3477   6.3020 14.60847375  1985"}, {"n": "IRIDIUM 33 DEB", "t": "debris", "l1": "1 34376U 97051FU  26186.23510731  .00015248  00000+0  27422-2 0  9998", "l2": "2 34376  86.2938 274.2614 0024891 188.6107 171.4683 14.66344478910009"}, {"n": "COSMOS 2251 DEB", "t": "debris", "l1": "1 35777U 93036ARX 26185.92534744  .00000691  00000+0  70658-3 0  9994", "l2": "2 35777  73.7716 356.4718 0449514 220.9072 296.0862 13.41493944824228"}, {"n": "FENGYUN 1C DEB", "t": "debris", "l1": "1 30476U 99025AGP 26186.59227715  .00003554  00000+0  16091-2 0  9991", "l2": "2 30476  99.1083 235.4335 0046822  77.4518  77.5730 14.22057122997551"}, {"n": "STARLINK-32017", "t": "sat", "l1": "1 60032U 24111S   26186.32685453  .00020012  00000+0  68547-3 0  9996", "l2": "2 60032  53.1575 249.2785 0000946  83.2704 276.8405 15.30223462117042"}, {"n": "COSMOS 2251 DEB", "t": "debris", "l1": "1 34064U 93036KB  26186.23325633  .00001509  00000+0  45719-3 0  9991", "l2": "2 34064  74.0314 251.2710 0023175 273.5677 143.7411 14.42986774910914"}, {"n": "FENGYUN 1C DEB", "t": "debris", "l1": "1 31774U 99025CFZ 26160.38865030  .00002264  00000+0  10365-2 0  9995", "l2": "2 31774  98.7514 207.9473 0059364  59.3165 301.3844 14.21448999655422"}, {"n": "FENGYUN 1C DEB", "t": "debris", "l1": "1 38513U 99025ESY 26183.97402001  .00012949  00000+0  10287-2 0  9992", "l2": "2 38513  97.6110  80.1359 0227939 304.8305  53.1655 14.82347951666464"}, {"n": "FENGYUN 1C DEB", "t": "debris", "l1": "1 35217U 99025DPZ 26178.12722415  .00001488  00000+0  16066-2 0  9992", "l2": "2 35217 101.8784 139.1200 0294756 200.6708 158.2293 13.58312046638854"}, {"n": "IRIDIUM 33 DEB", "t": "debris", "l1": "1 33850U 97051T   26186.35199272  .00001868  00000+0  55526-3 0  9990", "l2": "2 33850  86.3417 302.1700 0010835 203.1895 210.5146 14.42727984911028"}, {"n": "STARLINK-5322", "t": "sat", "l1": "1 55303U 23010AL  26186.20651486  .00000989  00000+0  90678-4 0  9996", "l2": "2 55303  69.9996 107.9568 0002892 271.7059  88.3769 14.98328553190384"}, {"n": "COSMOS 2251 DEB", "t": "debris", "l1": "1 33915U 93036DU  26186.53377406  .00001400  00000+0  46413-3 0  9995", "l2": "2 33915  74.0424  18.5969 0105746  60.5296 331.1629 14.35626887906968"}, {"n": "FENGYUN 1C DEB", "t": "debris", "l1": "1 37594U 99025EKN 26186.02339029  .00000473  00000+0  27515-3 0  9990", "l2": "2 37594  98.7122 214.5879 0086654  50.5900 310.2903 14.11309310806435"}, {"n": "STARLINK-4495", "t": "sat", "l1": "1 53552U 22101AB  26185.91130933  .00002684  00000+0  18665-3 0  9995", "l2": "2 53552  53.1588 257.6894 0001208  90.2988 269.8142 15.08836188214658"}, {"n": "STARLINK-32560", "t": "sat", "l1": "1 61982U 24210Z   26186.19426757  .00035752  00000+0  13021-2 0  9999", "l2": "2 61982  43.0012 235.9712 0001653 258.7635 101.3031 15.27587043 92853"}, {"n": "STARLINK-31494", "t": "sat", "l1": "1 59238U 24049H   26186.41676197  .00000543  00000+0  29246-4 0  9998", "l2": "2 59238  43.0035 198.4442 0001215 280.4106  79.6609 15.27584005130419"}, {"n": "STARLINK-31319", "t": "sat", "l1": "1 59457U 24068C   26186.05650766  .00002738  00000+0  10901-3 0  9991", "l2": "2 59457  43.0064  88.1373 0001801 296.0874  63.9792 15.27580089126511"}, {"n": "FENGYUN 1C DEB", "t": "debris", "l1": "1 36701U 99025DZX 26184.80281773  .00002458  00000+0  21734-2 0  9996", "l2": "2 36701 102.7526 210.3226 0259382 150.3860 211.2250 13.72371250639237"}, {"n": "IRIDIUM 33 DEB", "t": "debris", "l1": "1 34508U 97051GZ  26186.50780793  .00003461  00000+0  10736-2 0  9996", "l2": "2 34508  86.3708  15.6914 0062201 218.9808 140.6900 14.39784142902540"}, {"n": "IRIDIUM 33 DEB", "t": "debris", "l1": "1 35809U 97051ST  26182.92946611  .00009921  00000+0  13074-2 0  9991", "l2": "2 35809  86.3246 243.3531 0008839 259.7863 100.2362 14.79993096897796"}, {"n": "FENGYUN 1C DEB", "t": "debris", "l1": "1 29842U 99025EL  26186.27013565  .00006670  00000+0  12288-2 0  9993", "l2": "2 29842  98.5652 286.0387 0103456 252.0082 131.1431 14.62473185 23352"}, {"n": "IRIDIUM 33 DEB", "t": "debris", "l1": "1 34497U 97051GN  26186.35017360  .00001532  00000+0  58784-3 0  9992", "l2": "2 34497  86.2795 324.9606 0080297  40.1274 349.5070 14.28143635898033"}, {"n": "FENGYUN 1C DEB", "t": "debris", "l1": "1 32440U 99025DBC 26184.81386492  .00002892  00000+0  26792-2 0  9998", "l2": "2 32440  99.1402  32.8362 0319819 287.1103  69.5250 13.62515085630504"}, {"n": "FENGYUN 1C DEB", "t": "debris", "l1": "1 30915U 99025AZD 26186.18702612  .00004398  00000+0  18213-2 0  9993", "l2": "2 30915  98.9331 271.3183 0048632 294.3279  65.2827 14.26483279994263"}, {"n": "FENGYUN 1C DEB", "t": "debris", "l1": "1 33665U 99025DFA 26181.15316987  .00001393  00000+0  36348-3 0  9998", "l2": "2 33665  99.0410 303.2901 0449299 255.4524  99.6418 14.04833022953900"}, {"n": "COSMOS 2251 DEB", "t": "debris", "l1": "1 35459U 93036ALD 26185.67513004  .00000976  00000+0  33258-3 0  9990", "l2": "2 35459  73.8704 168.1302 0015262  70.6322 289.6480 14.37785673612922"}, {"n": "STARLINK-32271", "t": "sat", "l1": "1 60368U 24138P   26186.12586562  .00001392  00000+0  59074-4 0  9992", "l2": "2 60368  53.1594 124.4086 0001430 104.9379 255.1780 15.30229174108605"}, {"n": "COSMOS 2251 DEB", "t": "debris", "l1": "1 38055U 93036BRM 26185.70406867  .00007871  00000+0  10249-2 0  9992", "l2": "2 38055  74.0075 165.3838 0065254 243.4600 296.3981 14.79261806636963"}, {"n": "FENGYUN 1C DEB", "t": "debris", "l1": "1 30043U 99025NU  26186.25824429  .00002231  00000+0  65807-3 0  9990", "l2": "2 30043  98.6288 285.7166 0278541 255.3586 101.6563 14.24501067  2496"}, {"n": "FENGYUN 1C DEB", "t": "debris", "l1": "1 46440U 99025EYV 26185.93841704  .00000591  00000+0  25410-3 0  9990", "l2": "2 46440  98.5719 212.0790 0173550 264.0820 215.0488 14.20633643652680"}, {"n": "COSMOS 2251 DEB", "t": "debris", "l1": "1 33907U 93036DL  26186.52061012  .00007018  00000+0  23907-2 0  9991", "l2": "2 33907  74.0690  20.8828 0115767  28.8632   0.2901 14.32914360895113"}, {"n": "COSMOS 2251 DEB", "t": "debris", "l1": "1 35645U 93036ANL 26186.03718759  .00007715  00000+0  20347-2 0  9994", "l2": "2 35645  73.9629  64.3511 0069103 171.8320 188.3983 14.47679524897263"}, {"n": "COSMOS 2251 DEB", "t": "debris", "l1": "1 34031U 93036HS  26186.21220060  .00006707  00000+0  13478-2 0  9992", "l2": "2 34031  74.0125 104.4763 0023036 176.1453 334.1773 14.61647722915517"}];
